ONEWEB-0628             
1 55169U 23004AF  24347.06578095  .00000144  00000+0  36533-3 0  9996
2 55169  87.8880 100.5821 0002400 102.9205 257.2192 13.12444070 95614
ONEWEB-0629             
1 55170U 23004AG  24346.82975067  .00000088  00000+0  19287-3 0  9995
2 55170  87.9097 115.9050 0001854  90.0221 270.1123 13.17649074 94846
ONEWEB-0631             
1 55171U 23004AH  24347.02360656  .00000050  00000+0  93607-4 0  9999
2 55171  87.9115  85.2869 0001775 124.4597 235.6703 13.18687544 96909
ONEWEB-0709             
1 55172U 23004AJ  24347.34978437 -.00000356  00000+0 -10412-2 0  9999
2 55172  87.8892 131.0614 0001062 140.6763 219.4443 13.11413642 93551
ONEWEB-0710             
1 55173U 23004AK  24347.37562818  .00000006  00000+0 -16963-4 0  9995
2 55173  87.9096 115.8197 0001682 102.5126 257.6193 13.17652221 94914
ONEWEB-0711             
1 55174U 23004AL  24347.16839679  .00000502  00000+0  13792-2 0  9990
2 55174  87.8893 131.0658 0002377 105.3571 254.7820 13.11415117 93490
ONEWEB-0713             
1 55175U 23004AM  24347.33963195  .00000042  00000+0  81573-4 0  9994
2 55175  87.8893 131.0399 0001819 101.0083 259.1249 13.11415626 93493
ONEWEB-0715             
1 55176U 23004AN  24346.87676504  .00000113  00000+0  28396-3 0  9990
2 55176  87.8888 131.1320 0001423 114.2413 245.8863 13.11414732 93476
